{
    "links": {
        "self": "http://www.neowsapp.com/rest/v1/neo/3837640?api_key=iIulBulltgU6a56xZRHN4H3l9WmuAYTsLGpBGhQ2"
    },
    "id": "3837640",
    "neo_reference_id": "3837640",
    "name": "(2019 AV3)",
    "designation": "2019 AV3",
    "nasa_jpl_url": "http://ssd.jpl.nasa.gov/sbdb.cgi?sstr=3837640",
    "absolute_magnitude_h": 23.3,
    "estimated_diameter": {
        "kilometers": {
            "estimated_diameter_min": 0.058150704,
            "estimated_diameter_max": 0.130028927
        },
        "meters": {
            "estimated_diameter_min": 58.1507039646,
            "estimated_diameter_max": 130.0289270043
        },
        "miles": {
            "estimated_diameter_min": 0.0361331611,
            "estimated_diameter_max": 0.0807962044
        },
        "feet": {
            "estimated_diameter_min": 190.7831555951,
            "estimated_diameter_max": 426.6041048727
        }
    },
    "is_potentially_hazardous_asteroid": false,
    "close_approach_data": [
        {
            "close_approach_date": "2018-10-25",
            "close_approach_date_full": "2018-Oct-25 19:05",
            "epoch_date_close_approach": 1540494300000,
            "relative_velocity": {
                "kilometers_per_second": "5.8839264053",
                "kilometers_per_hour": "21182.1350591838",
                "miles_per_hour": "13161.7549760801"
            },
            "miss_distance": {
                "astronomical": "0.1049908874",
                "lunar": "40.8414551986",
                "kilometers": "15706413.124449838",
                "miles": "9759512.5609222444"
            },
            "orbiting_body": "Earth"
        }
    ],
    "orbital_data": {
        "orbit_id": "3",
        "orbit_determination_date": "2019-01-26 09:37:42",
        "first_observation_date": "2019-01-04",
        "last_observation_date": "2019-01-26",
        "data_arc_in_days": 22,
        "observations_used": 15,
        "orbit_uncertainty": "9",
        "minimum_orbit_intersection": ".104768",
        "jupiter_tisserand_invariant": "3.877",
        "epoch_osculation": "2458489.5",
        "eccentricity": ".4456802122610186",
        "semi_major_axis": "1.848288170977709",
        "inclination": "5.895939419875575",
        "ascending_node_longitude": "147.4468144870452",
        "orbital_period": "917.8103543918534",
        "perihelion_distance": "1.024542706616834",
        "perihelion_argument": "262.6269300460274",
        "aphelion_distance": "2.672033635338585",
        "perihelion_time": "2458433.031503665036",
        "mean_anomaly": "22.1490840491301",
        "mean_motion": ".3922378934573452",
        "equinox": "J2000",
        "orbit_class": {
            "orbit_class_type": "AMO",
            "orbit_class_description": "Near-Earth asteroid orbits similar to that of 1221 Amor",
            "orbit_class_range": "1.017 AU < q (perihelion) < 1.3 AU"
        }
    },
    "is_sentry_object": false
}